H1 CPF  1  DLR 2022 12 07 13  8412 technosat            
H2  1704205 6203    42829 2022 12 07 00 00 00 2022 12 14 00 00 00    60 1 1  0 0 0
H9
10 0 59920  64800.000000  0       5204270.977       1190333.969      -4486298.573
10 0 59920  64860.000000  0       4935307.602       1028015.149      -4819267.069
10 0 59920  64920.000000  0       4644179.052        863827.586      -5131839.542
10 0 59920  64980.000000  0       4332111.131        698652.538      -5422709.824
10 0 59920  65040.000000  0       4000423.029        533363.155      -5690665.126
10 0 59920  65100.000000  0       3650521.462        368820.041      -5934590.759
10 0 59920  65160.000000  0       3283894.397        205866.956      -6153474.417
10 0 59920  65220.000000  0       2902104.488         45326.659      -6346409.921
10 0 59920  65280.000000  0       2506782.313       -112003.091      -6512600.529
10 0 59920  65340.000000  0       2099619.360       -265353.317      -6651361.800
10 0 59920  65400.000000  0       1682360.854       -413987.413      -6762124.053
10 0 59920  65460.000000  0       1256798.324       -557204.557      -6844434.460
10 0 59920  65520.000000  0        824761.910       -694342.873      -6897958.575
10 0 59920  65580.000000  0        388112.631       -824782.310      -6922481.359
10 0 59920  65640.000000  0        -51265.402       -947947.326      -6917907.811
10 0 59920  65700.000000  0       -491472.842      -1063309.303      -6884263.218
10 0 59920  65760.000000  0       -930603.104      -1170388.728      -6821693.023
10 0 59920  65820.000000  0      -1366750.410      -1268757.104      -6730462.169
10 0 59920  65880.000000  0      -1798017.820      -1358038.596      -6610954.037
10 0 59920  65940.000000  0      -2222525.279      -1437911.408      -6463668.884
10 0 59920  66000.000000  0      -2638417.490      -1508108.855      -6289221.860
10 0 59920  66060.000000  0      -3043871.765      -1568420.190      -6088340.762
10 0 59920  66120.000000  0      -3437105.890      -1618691.190      -5861863.349
10 0 59920  66180.000000  0      -3816385.925      -1658824.438      -5610734.191
10 0 59920  66240.000000  0      -4180033.847      -1688779.313      -5336001.036
10 0 59920  66300.000000  0      -4526434.970      -1708571.694      -5038810.749
10 0 59920  66360.000000  0      -4854045.154      -1718273.383      -4720404.873
10 0 59920  66420.000000  0      -5161397.794      -1718011.251      -4382114.802
10 0 59920  66480.000000  0      -5447110.571      -1707966.106      -4025356.555
10 0 59920  66540.000000  0      -5709891.904      -1688371.291      -3651625.129
10 0 59920  66600.000000  0      -5948547.036      -1659510.999      -3262488.466
10 0 59920  66660.000000  0      -6161983.734      -1621718.318      -2859581.078
10 0 59920  66720.000000  0      -6349217.570      -1575373.013      -2444597.341
10 0 59920  66780.000000  0      -6509376.763      -1520899.064      -2019284.497
10 0 59920  66840.000000  0      -6641706.542      -1458761.971      -1585435.365
10 0 59920  66900.000000  0      -6745573.006      -1389465.857      -1144880.791
10 0 59920  66960.000000  0      -6820466.446      -1313550.331       -699481.879
10 0 59920  67020.000000  0      -6866004.088      -1231587.136       -251122.033
10 0 59920  67080.000000  0      -6881932.224      -1144176.624        198301.115
10 0 59920  67140.000000  0      -6868127.757      -1051944.123        646883.872
10 0 59920  67200.000000  0      -6824599.124       -955536.167       1092724.724
10 0 59920  67260.000000  0      -6751486.576       -855616.618       1533932.591
10 0 59920  67320.000000  0      -6649061.839       -752862.698       1968635.027
10 0 59920  67380.000000  0      -6517727.147       -647960.972       2394986.363
10 0 59920  67440.000000  0      -6358013.654       -541603.282       2811175.731
10 0 59920  67500.000000  0      -6170579.218       -434482.659       3215434.947
10 0 59920  67560.000000  0      -5956205.551       -327289.245       3606046.187
10 0 59920  67620.000000  0      -5715794.775       -220706.296       3981349.414
10 0 59920  67680.000000  0      -5450365.408       -115406.245       4339749.487
10 0 59920  67740.000000  0      -5161047.861        -12046.857       4679722.971
10 0 59920  67800.000000  0      -4849079.419         88732.545       4999824.592
10 0 59920  67860.000000  0      -4515798.795        186314.710       5298693.338
10 0 59920  67920.000000  0      -4162640.245        280107.961       5575058.255
10 0 59920  67980.000000  0      -3791127.172        369549.479       5827743.829
10 0 59920  68040.000000  0      -3402865.376        454108.441       6055674.914
10 0 59920  68100.000000  0      -2999535.929        533288.916       6257881.197
10 0 59920  68160.000000  0      -2582887.822        606632.548       6433501.246
10 0 59920  68220.000000  0      -2154730.252        673721.055       6581786.177
10 0 59920  68280.000000  0      -1716924.614        734178.496       6702102.743
10 0 59920  68340.000000  0      -1271376.338        787673.265       6793935.897
10 0 59920  68400.000000  0       -820026.606        833919.829       6856890.937
10 0 59920  68460.000000  0       -364843.871        872680.205       6890695.197
10 0 59920  68520.000000  0         92184.731        903765.158       6895199.217
10 0 59920  68580.000000  0        549062.041        927035.138       6870377.465
10 0 59920  68640.000000  0       1003789.644        942400.956       6816328.568
10 0 59920  68700.000000  0       1454376.635        949824.165       6733275.023
10 0 59920  68760.000000  0       1898848.392        949317.146       6621562.400
10 0 59920  68820.000000  0       2335255.276        940942.914       6481658.087
10 0 59920  68880.000000  0       2761681.303        924814.642       6314149.556
10 0 59920  68940.000000  0       3176252.779        901094.881       6119742.095
10 0 59920  69000.000000  0       3577146.714        869994.520       5899255.950
10 0 59920  69060.000000  0       3962599.005        831771.479       5653623.046
10 0 59920  69120.000000  0       4330912.430        786729.110       5383883.244
10 0 59920  69180.000000  0       4680464.387        735214.292       5091180.155
10 0 59920  69240.000000  0       5009714.420        677615.290       4776756.498
10 0 59920  69300.000000  0       5317211.427        614359.387       4441948.891
10 0 59920  69360.000000  0       5601600.434        545910.305       4088182.187
10 0 59920  69420.000000  0       5861628.947        472765.366       3716963.397
10 0 59920  69480.000000  0       6096152.868        395452.486       3329875.174
10 0 59920  69540.000000  0       6304141.825        314526.974       2928568.890
10 0 59920  69600.000000  0       6484683.952        230568.070       2514757.505
10 0 59920  69660.000000  0       6636990.269        144175.346       2090208.146
10 0 59920  69720.000000  0       6760398.470         55965.036       1656734.254
10 0 59920  69780.000000  0       6854375.954        -33433.722       1216187.500
10 0 59920  69840.000000  0       6918522.233       -123382.753        770449.610
10 0 59920  69900.000000  0       6952570.802       -213238.801        321424.017
10 0 59920  69960.000000  0       6956390.292       -302357.499       -128972.727
10 0 59920  70020.000000  0       6929984.800       -390097.355       -578819.492
10 0 59920  70080.000000  0       6873493.665       -475823.726      -1026199.049
10 0 59920  70140.000000  0       6787190.583       -558912.724      -1469206.595
10 0 59920  70200.000000  0       6671481.971       -638755.061      -1905958.173
10 0 59920  70260.000000  0       6526904.718       -714759.802      -2334598.888
10 0 59920  70320.000000  0       6354123.333       -786358.022      -2753310.971
10 0 59920  70380.000000  0       6153926.473       -853006.297      -3160321.624
10 0 59920  70440.000000  0       5927222.896       -914190.053      -3553910.588
10 0 59920  70500.000000  0       5675036.869       -969426.720      -3932417.424
10 0 59920  70560.000000  0       5398503.045      -1018268.676      -4294248.444
10 0 59920  70620.000000  0       5098860.908      -1060305.979      -4637883.238
10 0 59920  70680.000000  0       4777448.828      -1095168.881      -4961880.877
10 0 59920  70740.000000  0       4435697.689      -1122530.135      -5264885.714
10 0 59920  70800.000000  0       4075124.153      -1142107.060      -5545632.765
10 0 59920  70860.000000  0       3697323.590      -1153663.362      -5802952.642
10 0 59920  70920.000000  0       3303962.754      -1157010.670      -6035776.012
10 0 59920  70980.000000  0       2896772.257      -1152009.793      -6243137.631
10 0 59920  71040.000000  0       2477538.843      -1138571.689      -6424179.940
10 0 59920  71100.000000  0       2048097.483      -1116658.164      -6578156.214
10 0 59920  71160.000000  0       1610323.348      -1086282.356      -6704433.217
10 0 59920  71220.000000  0       1166123.703      -1047508.972      -6802493.437
10 0 59920  71280.000000  0        717429.731      -1000454.213      -6871936.918
10 0 59920  71340.000000  0        266188.235       -945285.395      -6912482.606
10 0 59920  71400.000000  0       -185646.563       -882220.341      -6923969.180
10 0 59920  71460.000000  0       -636121.196       -811526.531      -6906355.574
10 0 59920  71520.000000  0      -1083291.205       -733519.974      -6859721.076
10 0 59920  71580.000000  0      -1525229.309       -648563.791      -6784264.877
10 0 59920  71640.000000  0      -1960033.461       -557066.559      -6680305.219
10 0 59920  71700.000000  0      -2385834.780       -459480.437      -6548278.071
10 0 59920  71760.000000  0      -2800805.281       -356299.057      -6388735.423
10 0 59920  71820.000000  0      -3203165.478       -248055.149      -6202343.255
10 0 59920  71880.000000  0      -3591191.912       -135317.971      -5989879.098
10 0 59920  71940.000000  0      -3963224.526        -18690.489      -5752229.060
99
